CCSDS_OMM_VERS = 2.0
CREATION_DATE  = 
ORIGINATOR     = 

OBJECT_NAME    = UNKNOWN
OBJECT_ID      = 
CENTER_NAME    = EARTH
REF_FRAME      = TEME
TIME_SYSTEM    = UTC
MEAN_ELEMENT_THEORY = SGP/SGP4

EPOCH          = 2026-01-03T23:13:38.229312
MEAN_MOTION    = 13.66162335
ECCENTRICITY   = .0205866
INCLINATION    = 102.8445
RA_OF_ASC_NODE = 51.5623
ARG_OF_PERICENTER = 216.5539
MEAN_ANOMALY   = 142.1392

EPHEMERIS_TYPE = 0
CLASSIFICATION_TYPE = U
NORAD_CAT_ID   = 82741
ELEMENT_SET_NO = 999
REV_AT_EPOCH   = 60011
BSTAR          = .4101E-2
MEAN_MOTION_DOT = .3844E-4
MEAN_MOTION_DDOT = 0

CCSDS_OMM_VERS = 2.0
CREATION_DATE  = 
ORIGINATOR     = 

OBJECT_NAME    = UNKNOWN
OBJECT_ID      = 
CENTER_NAME    = EARTH
REF_FRAME      = TEME
TIME_SYSTEM    = UTC
MEAN_ELEMENT_THEORY = SGP/SGP4

EPOCH          = 2026-01-04T08:05:11.931360
MEAN_MOTION    = 13.09045167
ECCENTRICITY   = .0023313
INCLINATION    = 90.3385
RA_OF_ASC_NODE = 38.8950
ARG_OF_PERICENTER = 57.4290
MEAN_ANOMALY   = 302.9084

EPHEMERIS_TYPE = 0
CLASSIFICATION_TYPE = U
NORAD_CAT_ID   = 82783
ELEMENT_SET_NO = 999
REV_AT_EPOCH   = 50731
BSTAR          = .44231E-3
MEAN_MOTION_DOT = .159E-5
MEAN_MOTION_DDOT = 0

CCSDS_OMM_VERS = 2.0
CREATION_DATE  = 
ORIGINATOR     = 

OBJECT_NAME    = UNKNOWN
OBJECT_ID      = 
CENTER_NAME    = EARTH
REF_FRAME      = TEME
TIME_SYSTEM    = UTC
MEAN_ELEMENT_THEORY = SGP/SGP4

EPOCH          = 2025-12-31T18:49:36.079104
MEAN_MOTION    = 14.23003159
ECCENTRICITY   = .0029711
INCLINATION    = 82.9500
RA_OF_ASC_NODE = 176.5288
ARG_OF_PERICENTER = 113.9721
MEAN_ANOMALY   = 307.5300

EPHEMERIS_TYPE = 0
CLASSIFICATION_TYPE = U
NORAD_CAT_ID   = 82798
ELEMENT_SET_NO = 999
REV_AT_EPOCH   = 31508
BSTAR          = .17764E-2
MEAN_MOTION_DOT = .4034E-4
MEAN_MOTION_DDOT = 0

CCSDS_OMM_VERS = 2.0
CREATION_DATE  = 
ORIGINATOR     = 

OBJECT_NAME    = UNKNOWN
OBJECT_ID      = 
CENTER_NAME    = EARTH
REF_FRAME      = TEME
TIME_SYSTEM    = UTC
MEAN_ELEMENT_THEORY = SGP/SGP4

EPOCH          = 2026-01-05T04:12:33.146496
MEAN_MOTION    = 14.35140709
ECCENTRICITY   = .0049074
INCLINATION    = 99.7884
RA_OF_ASC_NODE = 174.0358
ARG_OF_PERICENTER = 307.1248
MEAN_ANOMALY   = 52.5455

EPHEMERIS_TYPE = 0
CLASSIFICATION_TYPE = U
NORAD_CAT_ID   = 82820
ELEMENT_SET_NO = 999
REV_AT_EPOCH   = 62899
BSTAR          = .16755E-2
MEAN_MOTION_DOT = .4799E-4
MEAN_MOTION_DDOT = 0

CCSDS_OMM_VERS = 2.0
CREATION_DATE  = 
ORIGINATOR     = 

OBJECT_NAME    = UNKNOWN
OBJECT_ID      = 
CENTER_NAME    = EARTH
REF_FRAME      = TEME
TIME_SYSTEM    = UTC
MEAN_ELEMENT_THEORY = SGP/SGP4

EPOCH          = 2026-01-04T19:45:41.918976
MEAN_MOTION    = 13.87914813
ECCENTRICITY   = .0129665
INCLINATION    = 82.6894
RA_OF_ASC_NODE = 46.4959
ARG_OF_PERICENTER = 214.5987
MEAN_ANOMALY   = 144.6690

EPHEMERIS_TYPE = 0
CLASSIFICATION_TYPE = U
NORAD_CAT_ID   = 82854
ELEMENT_SET_NO = 999
REV_AT_EPOCH   = 61100
BSTAR          = .19044E-2
MEAN_MOTION_DOT = .2434E-4
MEAN_MOTION_DDOT = 0

CCSDS_OMM_VERS = 2.0
CREATION_DATE  = 
ORIGINATOR     = 

OBJECT_NAME    = UNKNOWN
OBJECT_ID      = 
CENTER_NAME    = EARTH
REF_FRAME      = TEME
TIME_SYSTEM    = UTC
MEAN_ELEMENT_THEORY = SGP/SGP4

EPOCH          = 2026-01-04T12:12:15.271776
MEAN_MOTION    = 14.24627904
ECCENTRICITY   = .003779
INCLINATION    = 99.9971
RA_OF_ASC_NODE = 266.7958
ARG_OF_PERICENTER = 222.2419
MEAN_ANOMALY   = 137.5843

EPHEMERIS_TYPE = 0
CLASSIFICATION_TYPE = U
NORAD_CAT_ID   = 82873
ELEMENT_SET_NO = 999
REV_AT_EPOCH   = 62447
BSTAR          = .21837E-2
MEAN_MOTION_DOT = .5061E-4
MEAN_MOTION_DDOT = 0

CCSDS_OMM_VERS = 2.0
CREATION_DATE  = 
ORIGINATOR     = 

OBJECT_NAME    = UNKNOWN
OBJECT_ID      = 
CENTER_NAME    = EARTH
REF_FRAME      = TEME
TIME_SYSTEM    = UTC
MEAN_ELEMENT_THEORY = SGP/SGP4

EPOCH          = 2026-01-04T05:47:36.199680
MEAN_MOTION    = 14.15201013
ECCENTRICITY   = .0377086
INCLINATION    = 98.6768
RA_OF_ASC_NODE = 352.0376
ARG_OF_PERICENTER = 218.3894
MEAN_ANOMALY   = 138.9892

EPHEMERIS_TYPE = 0
CLASSIFICATION_TYPE = U
NORAD_CAT_ID   = 82875
ELEMENT_SET_NO = 999
REV_AT_EPOCH   = 54765
BSTAR          = .251E-3
MEAN_MOTION_DOT = .918E-5
MEAN_MOTION_DDOT = 0

CCSDS_OMM_VERS = 2.0
CREATION_DATE  = 
ORIGINATOR     = 

OBJECT_NAME    = UNKNOWN
OBJECT_ID      = 
CENTER_NAME    = EARTH
REF_FRAME      = TEME
TIME_SYSTEM    = UTC
MEAN_ELEMENT_THEORY = SGP/SGP4

EPOCH          = 2026-01-03T06:28:07.820544
MEAN_MOTION    = 14.32010394
ECCENTRICITY   = .0022458
INCLINATION    = 98.9620
RA_OF_ASC_NODE = 124.0567
ARG_OF_PERICENTER = 335.5439
MEAN_ANOMALY   = 24.4676

EPHEMERIS_TYPE = 0
CLASSIFICATION_TYPE = U
NORAD_CAT_ID   = 82893
ELEMENT_SET_NO = 999
REV_AT_EPOCH   = 42705
BSTAR          = .59546E-2
MEAN_MOTION_DOT = .16015E-3
MEAN_MOTION_DDOT = 0

CCSDS_OMM_VERS = 2.0
CREATION_DATE  = 
ORIGINATOR     = 

OBJECT_NAME    = UNKNOWN
OBJECT_ID      = 
CENTER_NAME    = EARTH
REF_FRAME      = TEME
TIME_SYSTEM    = UTC
MEAN_ELEMENT_THEORY = SGP/SGP4

EPOCH          = 2025-12-23T03:00:51.774336
MEAN_MOTION    = 13.27744111
ECCENTRICITY   = .077583
INCLINATION    = 65.8351
RA_OF_ASC_NODE = 150.3467
ARG_OF_PERICENTER = 264.1410
MEAN_ANOMALY   = 87.0766

EPHEMERIS_TYPE = 0
CLASSIFICATION_TYPE = U
NORAD_CAT_ID   = 82912
ELEMENT_SET_NO = 999
REV_AT_EPOCH   = 58070
BSTAR          = .15171E-2
MEAN_MOTION_DOT = .3672E-4
MEAN_MOTION_DDOT = 0

CCSDS_OMM_VERS = 2.0
CREATION_DATE  = 
ORIGINATOR     = 

OBJECT_NAME    = UNKNOWN
OBJECT_ID      = 
CENTER_NAME    = EARTH
REF_FRAME      = TEME
TIME_SYSTEM    = UTC
MEAN_ELEMENT_THEORY = SGP/SGP4

EPOCH          = 2025-12-30T21:39:07.231392
MEAN_MOTION    = 13.23760813
ECCENTRICITY   = .0400034
INCLINATION    = 99.8687
RA_OF_ASC_NODE = 158.4700
ARG_OF_PERICENTER = 318.5050
MEAN_ANOMALY   = 38.6325

EPHEMERIS_TYPE = 0
CLASSIFICATION_TYPE = U
NORAD_CAT_ID   = 82961
ELEMENT_SET_NO = 999
REV_AT_EPOCH   = 55811
BSTAR          = .27858E-1
MEAN_MOTION_DOT = .18138E-3
MEAN_MOTION_DDOT = 0

CCSDS_OMM_VERS = 2.0
CREATION_DATE  = 
ORIGINATOR     = 

OBJECT_NAME    = UNKNOWN
OBJECT_ID      = 
CENTER_NAME    = EARTH
REF_FRAME      = TEME
TIME_SYSTEM    = UTC
MEAN_ELEMENT_THEORY = SGP/SGP4

EPOCH          = 2025-12-26T10:35:34.270368
MEAN_MOTION    = 13.60034141
ECCENTRICITY   = .0002424
INCLINATION    = 100.1151
RA_OF_ASC_NODE = 80.4159
ARG_OF_PERICENTER = 181.2549
MEAN_ANOMALY   = 178.8584

EPHEMERIS_TYPE = 0
CLASSIFICATION_TYPE = U
NORAD_CAT_ID   = 82965
ELEMENT_SET_NO = 999
REV_AT_EPOCH   = 52631
BSTAR          = .15259E-2
MEAN_MOTION_DOT = .1091E-4
MEAN_MOTION_DDOT = 0

CCSDS_OMM_VERS = 2.0
CREATION_DATE  = 
ORIGINATOR     = 

OBJECT_NAME    = UNKNOWN
OBJECT_ID      = 
CENTER_NAME    = EARTH
REF_FRAME      = TEME
TIME_SYSTEM    = UTC
MEAN_ELEMENT_THEORY = SGP/SGP4

EPOCH          = 2025-12-25T21:37:02.278848
MEAN_MOTION    = 0.99112284
ECCENTRICITY   = .0123617
INCLINATION    = 6.1512
RA_OF_ASC_NODE = 290.5041
ARG_OF_PERICENTER = 251.9910
MEAN_ANOMALY   = 284.4053

EPHEMERIS_TYPE = 0
CLASSIFICATION_TYPE = U
NORAD_CAT_ID   = 83903
ELEMENT_SET_NO = 999
REV_AT_EPOCH   = 4379
BSTAR          = 0
MEAN_MOTION_DOT = .121E-5
MEAN_MOTION_DDOT = 0

